GLOBALSTAR M094         
1 39074U 13005C   26003.51245254 -.00000082  00000+0  12136-3 0  9997
2 39074  51.9975 292.1878 0000768  38.6907 321.4014 12.62265567597673
GLOBALSTAR M096         
1 39075U 13005D   26003.60463478 -.00000098  00000+0  29489-4 0  9995
2 39075  52.0103 340.5755 0000433  23.1490 336.9396 12.62269676596607
GLOBALSTAR M078         
1 39076U 13005E   26003.89532534 -.00000077  00000+0  15091-3 0  9997
2 39076  51.9886  63.9291 0000544 235.8993 124.1823 12.62271325595265
GLOBALSTAR M095         
1 39077U 13005F   26003.84247252 -.00000080  00000+0  13417-3 0  9997
2 39077  52.0095  61.4607 0000019 346.0864  14.0002 12.62267553595111
GLOBALSTAR M087         
1 52888U 22064A   26003.93477240 -.00000084  00000+0  10996-3 0  9992
2 52888  51.9974 202.5121 0000971  71.9907 288.1066 12.62262358170399
